[{"OBJECT_NAME":"OBJECT C","OBJECT_ID":"2023-091C","EPOCH":"2026-03-09T22:19:51.473568","MEAN_MOTION":15.24718365,"ECCENTRICITY":0.0013257,"INCLINATION":97.5143,"RA_OF_ASC_NODE":130.8747,"ARG_OF_PERICENTER":96.9232,"MEAN_ANOMALY":263.3514,"EPHEMERIS_TYPE":0,"CLASSIFICATION_TYPE":"U","NORAD_CAT_ID":57168,"ELEMENT_SET_NO":999,"REV_AT_EPOCH":14912,"BSTAR":0.00051490472,"MEAN_MOTION_DOT":0.00012709,"MEAN_MOTION_DDOT":0},{"OBJECT_NAME":"STARLINK-31178","OBJECT_ID":"2024-038C","EPOCH":"2026-03-09T22:25:37.388928","MEAN_MOTION":15.27567631,"ECCENTRICITY":0.00012408,"INCLINATION":43.0055,"RA_OF_ASC_NODE":25.8069,"ARG_OF_PERICENTER":275.6894,"MEAN_ANOMALY":84.3817,"EPHEMERIS_TYPE":0,"CLASSIFICATION_TYPE":"U","NORAD_CAT_ID":59025,"ELEMENT_SET_NO":999,"REV_AT_EPOCH":11468,"BSTAR":-3.6286522e-5,"MEAN_MOTION_DOT":-1.26e-5,"MEAN_MOTION_DDOT":0}]
